{"type": "FeatureCollection", "features": [ {"type": "Feature", "properties": {"norad_id": 36402, "name": "COSMOS 2460 (732)", "group": "gnss", "lat": -42.53475612769928, "lon": -63.831372321298566, "alt_km": 19129.337972365036, "timestamp": "2025-12-09T23:33:24.095162+00:00", "meta": {"OBJECT_NAME": "COSMOS 2460 (732)", "OBJECT_ID": "2010-007C", "EPOCH": "2025-12-09T13:46:14.045952", "MEAN_MOTION": 2.13105903, "ECCENTRICITY": 0.00028013, "INCLINATION": 65.5317, "RA_OF_ASC_NODE": 320.8806, "ARG_OF_PERICENTER": 271.9201, "MEAN_ANOMALY": 87.2578, "EPHEMERIS_TYPE": 0, "CLASSIFICATION_TYPE": "U", "NORAD_CAT_ID": 36402, "ELEMENT_SET_NO": 999, "REV_AT_EPOCH": 12268, "BSTAR": 0, "MEAN_MOTION_DOT": -4.9e-07, "MEAN_MOTION_DDOT": 0}, "tle": {"line1": "1 36402U 10007C   25343.57377368 -.00000049  00000+0  00000+0 0  9998", "line2": "2 36402  65.5317 320.8806 0002801 271.9201  87.2578  2.13105903122684"}}, "geometry": {"type": "Point", "coordinates": [-63.831372321298566, -42.53475612769928]}}, {"type": "Feature", "properties": {"norad_id": 36585, "name": "GPS BIIF-1  (PRN 25)", "group": "gnss", "lat": -7.343411011653147, "lon": -149.1189956703539, "alt_km": 20088.43857163624, "timestamp": "2025-12-09T23:33:24.095175+00:00", "meta": {"OBJECT_NAME": "GPS BIIF-1  (PRN 25)", "OBJECT_ID": "2010-022A", "EPOCH": "2025-12-09T05:42:57.006720", "MEAN_MOTION": 2.00552985, "ECCENTRICITY": 0.0125965, "INCLINATION": 54.3007, "RA_OF_ASC_NODE": 216.2152, "ARG_OF_PERICENTER": 65.0346, "MEAN_ANOMALY": 110.6478, "EPHEMERIS_TYPE": 0, "CLASSIFICATION_TYPE": "U", "NORAD_CAT_ID": 36585, "ELEMENT_SET_NO": 999, "REV_AT_EPOCH": 11378, "BSTAR": 0, "MEAN_MOTION_DOT": 1.4e-07, "MEAN_MOTION_DDOT": 0}, "tle": {"line1": "1 36585U 10022A   25343.23815980  .00000014  00000+0  00000+0 0  9998", "line2": "2 36585  54.3007 216.2152 0125965  65.0346 110.6478  2.00552985113782"}}, "geometry": {"type": "Point", "coordinates": [-149.1189956703539, -7.343411011653147]}}, {"type": "Feature", "properties": {"norad_id": 36828, "name": "BEIDOU-2 IGSO-1 (C06)", "group": "gnss", "lat": 12.687715539809888, "lon": 173.99791215395518, "alt_km": 35986.14124511932, "timestamp": "2025-12-09T23:33:24.095187+00:00", "meta": {"OBJECT_NAME": "BEIDOU-2 IGSO-1 (C06)", "OBJECT_ID": "2010-036A", "EPOCH": "2025-12-09T10:39:31.929984", "MEAN_MOTION": 1.00277193, "ECCENTRICITY": 0.0051253, "INCLINATION": 54.2848, "RA_OF_ASC_NODE": 164.6772, "ARG_OF_PERICENTER": 215.9067, "MEAN_ANOMALY": 325.5876, "EPHEMERIS_TYPE": 0, "CLASSIFICATION_TYPE": "U", "NORAD_CAT_ID": 36828, "ELEMENT_SET_NO": 999, "REV_AT_EPOCH": 5619, "BSTAR": 0, "MEAN_MOTION_DOT": -6.8e-07, "MEAN_MOTION_DDOT": 0}, "tle": {"line1": "1 36828U 10036A   25343.44411956 -.00000068  00000+0  00000+0 0  9991", "line2": "2 36828  54.2848 164.6772 0051253 215.9067 325.5876  1.00277193 56196"}}, "geometry": {"type": "Point", "coordinates": [173.99791215395518, 12.687715539809888]}}, {"type": "Feature", "properties": {"norad_id": 37210, "name": "BEIDOU-2 G4 (C04)", "group": "gnss", "lat": 0.9434618848529771, "lon": -127.64478159215572, "alt_km": 35744.83154698405, "timestamp": "2025-12-09T23:33:24.095199+00:00", "meta": {"OBJECT_NAME": "BEIDOU-2 G4 (C04)", "OBJECT_ID": "2010-057A", "EPOCH": "2025-12-09T14:20:03.306336", "MEAN_MOTION": 1.00271261, "ECCENTRICITY": 0.00109895, "INCLINATION": 3.1767, "RA_OF_ASC_NODE": 69.9416, "ARG_OF_PERICENTER": 189.8795, "MEAN_ANOMALY": 193.8513, "EPHEMERIS_TYPE": 0, "CLASSIFICATION_TYPE": "U", "NORAD_CAT_ID": 37210, "ELEMENT_SET_NO": 999, "REV_AT_EPOCH": 5539, "BSTAR": 0, "MEAN_MOTION_DOT": -1.1e-06, "MEAN_MOTION_DDOT": 0}, "tle": {"line1": "1 37210U 10057A   25343.59726049 -.00000110  00000+0  00000+0 0  9996", "line2": "2 37210   3.1767  69.9416 0010989 189.8795 193.8513  1.00271261 55390"}}, "geometry": {"type": "Point", "coordinates": [-127.64478159215572, 0.9434618848529771]}}, {"type": "Feature", "properties": {"norad_id": 37256, "name": "BEIDOU-2 IGSO-2 (C07)", "group": "gnss", "lat": -47.77905265749086, "lon": 178.29333993150092, "alt_km": 35653.860265802374, "timestamp": "2025-12-09T23:33:24.095212+00:00", "meta": {"OBJECT_NAME": "BEIDOU-2 IGSO-2 (C07)", "OBJECT_ID": "2010-068A", "EPOCH": "2025-12-03T17:22:36.027840", "MEAN_MOTION": 1.0028872, "ECCENTRICITY": 0.00492449, "INCLINATION": 47.9042, "RA_OF_ASC_NODE": 274.2614, "ARG_OF_PERICENTER": 216.1411, "MEAN_ANOMALY": 310.24, "EPHEMERIS_TYPE": 0, "CLASSIFICATION_TYPE": "U", "NORAD_CAT_ID": 37256, "ELEMENT_SET_NO": 999, "REV_AT_EPOCH": 5483, "BSTAR": 0, "MEAN_MOTION_DOT": -2.25e-06, "MEAN_MOTION_DDOT": 0}, "tle": {"line1": "1 37256U 10068A   25337.72402810 -.00000225  00000+0  00000+0 0  9990", "line2": "2 37256  47.9042 274.2614 0049244 216.1411 310.2400  1.00288720 54834"}}, "geometry": {"type": "Point", "coordinates": [178.29333993150092, -47.77905265749086]}}, {"type": "Feature", "properties": {"norad_id": 37384, "name": "BEIDOU-2 IGSO-3 (C08)", "group": "gnss", "lat": 36.57933457891522, "lon": -161.10538718390572, "alt_km": 35685.7699574013, "timestamp": "2025-12-09T23:33:24.095226+00:00", "meta": {"OBJECT_NAME": "BEIDOU-2 IGSO-3 (C08)", "OBJECT_ID": "2011-013A", "EPOCH": "2025-12-07T14:00:04.361184", "MEAN_MOTION": 1.00271435, "ECCENTRICITY": 0.0035334, "INCLINATION": 62.1366, "RA_OF_ASC_NODE": 41.9657, "ARG_OF_PERICENTER": 187.0632, "MEAN_ANOMALY": 165.2408, "EPHEMERIS_TYPE": 0, "CLASSIFICATION_TYPE": "U", "NORAD_CAT_ID": 37384, "ELEMENT_SET_NO": 999, "REV_AT_EPOCH": 5373, "BSTAR": 0, "MEAN_MOTION_DOT": -1.91e-06, "MEAN_MOTION_DDOT": 0}, "tle": {"line1": "1 37384U 11013A   25341.58338381 -.00000191  00000+0  00000+0 0  9995", "line2": "2 37384  62.1366  41.9657 0035334 187.0632 165.2408  1.00271435 53735"}}, "geometry": {"type": "Point", "coordinates": [-161.10538718390572, 36.57933457891522]}}, {"type": "Feature", "properties": {"norad_id": 37605, "name": "GSAT-8 (GAGAN/PRN 127)", "group": "gnss", "lat": 1.134719167789858, "lon": 127.30598930393172, "alt_km": 35818.547224112976, "timestamp": "2025-12-09T23:33:24.095239+00:00", "meta": {"OBJECT_NAME": "GSAT-8 (GAGAN/PRN 127)", "OBJECT_ID": "2011-022A", "EPOCH": "2025-12-09T13:49:58.686816", "MEAN_MOTION": 1.00262971, "ECCENTRICITY": 0.00092899, "INCLINATION": 1.6415, "RA_OF_ASC_NODE": 84.2167, "ARG_OF_PERICENTER": 183.3094, "MEAN_ANOMALY": 73.6191, "EPHEMERIS_TYPE": 0, "CLASSIFICATION_TYPE": "U", "NORAD_CAT_ID": 37605, "ELEMENT_SET_NO": 999, "REV_AT_EPOCH": 5131, "BSTAR": 0, "MEAN_MOTION_DOT": 8.8e-07, "MEAN_MOTION_DDOT": 0}, "tle": {"line1": "1 37605U 11022A   25343.57637369  .00000088  00000+0  00000+0 0  9994", "line2": "2 37605   1.6415  84.2167 0009289 183.3094  73.6191  1.00262971 51319"}}, "geometry": {"type": "Point", "coordinates": [127.30598930393172, 1.134719167789858]}}, {"type": "Feature", "properties": {"norad_id": 37763, "name": "BEIDOU-2 IGSO-4 (C09)", "group": "gnss", "lat": 0.4536648009841835, "lon": 167.69006723125403, "alt_km": 36184.87778455897, "timestamp": "2025-12-09T23:33:24.095252+00:00", "meta": {"OBJECT_NAME": "BEIDOU-2 IGSO-4 (C09)", "OBJECT_ID": "2011-038A", "EPOCH": "2025-12-01T12:32:09.960864", "MEAN_MOTION": 1.00284084, "ECCENTRICITY": 0.01488084, "INCLINATION": 54.5806, "RA_OF_ASC_NODE": 167.4476, "ARG_OF_PERICENTER": 230.2017, "MEAN_ANOMALY": 315.0405, "EPHEMERIS_TYPE": 0, "CLASSIFICATION_TYPE": "U", "NORAD_CAT_ID": 37763, "ELEMENT_SET_NO": 999, "REV_AT_EPOCH": 5266, "BSTAR": 0, "MEAN_MOTION_DOT": 1.01e-06, "MEAN_MOTION_DDOT": 0}, "tle": {"line1": "1 37763U 11038A   25335.52233751  .00000101  00000+0  00000+0 0  9995", "line2": "2 37763  54.5806 167.4476 0148808 230.2017 315.0405  1.00284084 52669"}}, "geometry": {"type": "Point", "coordinates": [167.69006723125403, 0.4536648009841835]}}, {"type": "Feature", "properties": {"norad_id": 37846, "name": "GSAT0101 (GALILEO-PFM)", "group": "gnss", "lat": 6.981199480610767, "lon": -8.552409436206874, "alt_km": 23216.426732707892, "timestamp": "2025-12-09T23:33:24.095267+00:00", "meta": {"OBJECT_NAME": "GSAT0101 (GALILEO-PFM)", "OBJECT_ID": "2011-060A", "EPOCH": "2025-12-08T19:04:30.018432", "MEAN_MOTION": 1.70475601, "ECCENTRICITY": 0.00029509, "INCLINATION": 57.0536, "RA_OF_ASC_NODE": 346.9268, "ARG_OF_PERICENTER": 313.0699, "MEAN_ANOMALY": 46.9223, "EPHEMERIS_TYPE": 0, "CLASSIFICATION_TYPE": "U", "NORAD_CAT_ID": 37846, "ELEMENT_SET_NO": 999, "REV_AT_EPOCH": 8787, "BSTAR": 0, "MEAN_MOTION_DOT": -8.7e-07, "MEAN_MOTION_DDOT": 0}, "tle": {"line1": "1 37846U 11060A   25342.79479188 -.00000087  00000+0  00000+0 0  9999", "line2": "2 37846  57.0536 346.9268 0002950 313.0699  46.9223  1.70475601 87878"}}, "geometry": {"type": "Point", "coordinates": [-8.552409436206874, 6.981199480610767]}}, {"type": "Feature", "properties": {"norad_id": 37847, "name": "GSAT0102 (GALILEO-FM2)", "group": "gnss", "lat": 42.63357505215336, "lon": 23.551886134502244, "alt_km": 23220.779740483867, "timestamp": "2025-12-09T23:33:24.095279+00:00", "meta": {"OBJECT_NAME": "GSAT0102 (GALILEO-FM2)", "OBJECT_ID": "2011-060B", "EPOCH": "2025-12-09T14:02:59.398080", "MEAN_MOTION": 1.7047581, "ECCENTRICITY": 0.00049216, "INCLINATION": 57.0542, "RA_OF_ASC_NODE": 346.9059, "ARG_OF_PERICENTER": 308.4092, "MEAN_ANOMALY": 222.2657, "EPHEMERIS_TYPE": 0, "CLASSIFICATION_TYPE": "U", "NORAD_CAT_ID": 37847, "ELEMENT_SET_NO": 999, "REV_AT_EPOCH": 8789, "BSTAR": 0, "MEAN_MOTION_DOT": -8.7e-07, "MEAN_MOTION_DDOT": 0}, "tle": {"line1": "1 37847U 11060B   25343.58540970 -.00000087  00000+0  00000+0 0  9996", "line2": "2 37847  57.0542 346.9059 0004921 308.4092 222.2657  1.70475810 87893"}}, "geometry": {"type": "Point", "coordinates": [23.551886134502244, 42.63357505215336]}}]}